STARLINK-33751          
1 63512U 25071V   26068.46812039  .00027272  00000+0  93016-3 0  9998
2 63512  53.1592 141.0777 0001197  85.3209 274.7928 15.30178554 52719
KUIPER-00222            
1 67782U 26030U   26068.67636257  .00055223  00000+0  17317-2 0  9992
2 67782  51.8817 219.7147 0012800  40.1845 320.0084 15.32445377  5087
